EARTHCARE               
1 59908U 24101A   24258.82429552  .00032941  00000+0  46176-3 0  9992
2 59908  96.9889  24.5733 0004501 128.3835 231.7826 15.56690987 16929
